STARLINK-32732          
1 62488U 25003B   26068.02095088  .00028163  00000+0  10288-2 0  9992
2 62488  43.0035 292.3743 0002184 287.6864  72.3750 15.27585522 66458
FLOCK 4G-8              
1 62613U 25009E   26068.72381419  .00013559  00000+0  50438-3 0  9996
2 62613  97.4045 151.2834 0003050 315.2538  44.8455 15.27623414 63721
